ONEWEB-0395             
1 50475U 21132G   25311.29602271  .00000303  00000+0  82030-3 0  9992
2 50475  87.8853  65.2642 0001591  91.1946 268.9364 13.11420750186639
ONEWEB-0396             
1 50476U 21132H   25311.22835899  .00000078  00000+0  16452-3 0  9994
2 50476  87.9225  19.5344 0001720 100.2138 259.9189 13.18686949192389
ONEWEB-0397             
1 50477U 21132J   25311.24318979  .00000017  00000+0  11641-4 0  9991
2 50477  87.9226  19.5317 0001671 103.6221 256.5097 13.18688665192362
ONEWEB-0398             
1 50478U 21132K   25311.26381322 -.00000366  00000+0 -10685-2 0  9990
2 50478  87.8861  65.2406 0001785  88.5790 271.5542 13.11416741186522
ONEWEB-0399             
1 50479U 21132L   25311.25025149  .00000218  00000+0  57988-3 0  9994
2 50479  87.8852  65.2603 0001065 105.2848 254.8398 13.11414282186514
ONEWEB-0400             
1 50480U 21132M   25311.22175252  .00000050  00000+0  94997-4 0  9990
2 50480  87.9223  19.5258 0001915  95.6644 264.4707 13.18687751192357
ONEWEB-0401             
1 50481U 21132N   25311.26629897  .00000027  00000+0  36527-4 0  9993
2 50481  87.9223  19.5142 0001837 107.0076 253.1258 13.18686923192367
ONEWEB-0402             
1 50482U 21132P   25311.23000596  .00000057  00000+0  11300-3 0  9994
2 50482  87.9224  19.5141 0002010 119.3256 240.8077 13.18686597192389
